CELESTIS-02             
1 25160U 98007D   15354.58947231 -.00000008  00000-0  54338-4 0  9991
2 25160 107.9502 179.7127 0063912 215.7154 185.4554 14.21404016926170
CELESTIS-03             
1 26034U 99070C   15355.51204644  .00015344  00000-0  11482-2 0  9990
2 26034  98.2829 136.9170 0014962 171.6167 188.5309 15.02761206863677
